NORAD_CAT_ID,OBJECT_NAME,OBJECT_TYPE,EPOCH,MEAN_MOTION,ECCENTRICITY,INCLINATION,RA_OF_ASC_NODE,ARG_OF_PERICENTER,MEAN_ANOMALY,BSTAR,MEAN_MOTION_DOT,MEAN_MOTION_DDOT,TLE_LINE0,TLE_LINE1,TLE_LINE2,SEMIMAJOR_AXIS,PERIOD,APOGEE,PERIGEE,DECAYED
52657.0,STARLINK-4084,PAYLOAD,2024-01-21 11:23:09,15.08848766,0.0001772,53.2173,47.9793,118.6437,241.4733,3.2831e-05,2.35e-06,0.0,0 STARLINK-4084,1 52657U 22053B   24021.47441347  .00000235  00000-0  32831-4 0  9991,2 52657  53.2173  47.9793 0001772 118.6437 241.4733 15.08848766 93924,6917.854,95.437,540.944,538.493,0.0
52657.0,STARLINK-4084,PAYLOAD,2024-01-22 01:41:38,15.0882167,0.0002009,53.219,45.2976,136.6907,223.4244,0.00018648,2.68e-05,0.0,0 STARLINK-4084,1 52657U 22053B   24022.07058407  .00002680  00000-0  18648-3 0  9994,2 52657  53.2190  45.2976 0002009 136.6907 223.4244 15.08821670 94016,6917.936,95.439,541.191,538.412,0.0
52657.0,STARLINK-4084,PAYLOAD,2024-01-22 06:27:47,15.08835776,0.000222,53.2175,44.4122,127.8633,232.256,6.423e-05,7.34e-06,0.0,0 STARLINK-4084,1 52657U 22053B   24022.26930153  .00000734  00000-0  64230-4 0  9999,2 52657  53.2175  44.4122 0002220 127.8633 232.2560 15.08835776 94040,6917.893,95.438,541.294,538.223,0.0
52657.0,STARLINK-4084,PAYLOAD,2024-01-22 11:13:56,15.08840452,0.0001742,53.2175,43.5199,111.9542,248.1636,6.4945e-05,7.46e-06,0.0,0 STARLINK-4084,1 52657U 22053B   24022.46802028  .00000746  00000-0  64945-4 0  9996,2 52657  53.2175  43.5199 0001742 111.9542 248.1636 15.08840452 94075,6917.879,95.438,540.949,538.539,0.0
52657.0,STARLINK-4084,PAYLOAD,2024-01-23 06:18:34,15.08839611,0.000188,53.2176,39.9506,119.5417,240.5762,3.2119e-05,2.23e-06,0.0,0 STARLINK-4084,1 52657U 22053B   24023.26290214  .00000223  00000-0  32119-4 0  9991,2 52657  53.2176  39.9506 0001880 119.5417 240.5762 15.08839611 94199,6917.882,95.438,541.047,538.446,0.0
52657.0,STARLINK-4084,PAYLOAD,2024-01-24 06:09:22,15.08839519,0.0001707,53.218,35.4901,102.8376,257.2807,3.4273e-05,2.57e-06,0.0,0 STARLINK-4084,1 52657U 22053B   24024.25650478  .00000257  00000-0  34273-4 0  9993,2 52657  53.2180  35.4901 0001707 102.8376 257.2807 15.08839519 94340,6917.882,95.438,540.928,538.566,0.0
52657.0,STARLINK-4084,PAYLOAD,2024-01-25 07:35:32,15.08837838,0.0001552,53.2178,30.7359,83.8791,276.2378,4.0965e-05,3.64e-06,0.0,0 STARLINK-4084,1 52657U 22053B   24025.31634879  .00000364  00000-0  40965-4 0  9992,2 52657  53.2178  30.7359 0001552  83.8791 276.2378 15.08837838 94503,6917.887,95.438,540.826,538.678,0.0
52657.0,STARLINK-4084,PAYLOAD,2024-01-26 07:26:19,15.08838524,0.0001599,53.2181,26.2767,78.2462,281.871,5.8657e-05,6.46e-06,0.0,0 STARLINK-4084,1 52657U 22053B   24026.30995077  .00000646  00000-0  58657-4 0  9992,2 52657  53.2181  26.2767 0001599  78.2462 281.8710 15.08838524 94655,6917.885,95.438,540.856,538.644,0.0
52657.0,STARLINK-4084,PAYLOAD,2024-01-27 04:06:21,15.0883223,0.0001746,53.218,22.4141,70.2715,289.8465,2.1965e-05,6.1e-07,0.0,0 STARLINK-4084,1 52657U 22053B   24027.17107976  .00000061  00000-0  21965-4 0  9994,2 52657  53.2180  22.4141 0001746  70.2715 289.8465 15.08832230 94782,6917.904,95.438,540.977,538.561,0.0
52657.0,STARLINK-4084,PAYLOAD,2024-01-27 08:52:30,15.08835666,0.0002026,53.22,21.5097,63.7689,296.3511,6.6808e-05,7.75e-06,0.0,0 STARLINK-4084,1 52657U 22053B   24027.36979725  .00000775  00000-0  66808-4 0  9991,2 52657  53.2200  21.5097 0002026  63.7689 296.3511 15.08835666 94819,6917.894,95.438,541.16,538.357,0.0
52657.0,STARLINK-4084,PAYLOAD,2024-01-28 03:57:07,15.0884462,0.0001871,53.2196,17.9426,69.9796,290.1397,1.5864e-05,-3.6e-07,0.0,0 STARLINK-4084,1 52657U 22053B   24028.16467357 -.00000036  00000-0  15864-4 0  9990,2 52657  53.2196  17.9426 0001871  69.9796 290.1397 15.08844620 94939,6917.866,95.437,541.026,538.437,0.0
52657.0,STARLINK-4084,PAYLOAD,2024-01-28 08:43:16,15.08849218,0.0002082,53.2197,17.0497,67.7839,292.3374,1.8956e-05,1.4e-07,0.0,0 STARLINK-4084,1 52657U 22053B   24028.36339091  .00000014  00000-0  18956-4 0  9995,2 52657  53.2197  17.0497 0002082  67.7839 292.3374 15.08849218 94968,6917.852,95.437,541.158,538.277,0.0
52657.0,STARLINK-4084,PAYLOAD,2024-01-28 23:01:45,15.08844902,0.0001791,53.2197,14.3745,106.8788,253.24,3.1329e-05,2.11e-06,0.0,0 STARLINK-4084,1 52657U 22053B   24028.95955120  .00000211  00000-0  31329-4 0  9995,2 52657  53.2197  14.3745 0001791 106.8788 253.2400 15.08844902 95050,6917.865,95.437,540.969,538.491,0.0
52657.0,STARLINK-4084,PAYLOAD,2024-01-29 08:34:03,15.08850372,0.0001807,53.2199,12.5932,105.0022,255.117,7.7993e-05,9.54e-06,0.0,0 STARLINK-4084,1 52657U 22053B   24029.35698466  .00000954  00000-0  77993-4 0  9998,2 52657  53.2199  12.5932 0001807 105.0022 255.1170 15.08850372 95110,6917.849,95.437,540.964,538.464,0.0
52657.0,STARLINK-4084,PAYLOAD,2024-01-30 03:38:41,15.08838461,0.0002004,53.2187,9.0198,120.2173,239.9018,-9.3004e-06,-4.36e-06,0.0,0 STARLINK-4084,1 52657U 22053B   24030.15187305 -.00000436  00000-0 -93004-5 0  9992,2 52657  53.2187   9.0198 0002004 120.2173 239.9018 15.08838461 95237,6917.885,95.438,541.136,538.364,0.0
52657.0,STARLINK-4084,PAYLOAD,2024-01-30 08:24:51,15.08837475,0.0001734,53.2194,8.1306,100.6614,259.4574,-5.6537e-05,-1.188e-05,0.0,0 STARLINK-4084,1 52657U 22053B   24030.35059677 -.00001188  00000-0 -56537-4 0  9998,2 52657  53.2194   8.1306 0001734 100.6614 259.4574 15.08837475 95268,6917.888,95.438,540.953,538.554,0.0
52657.0,STARLINK-4084,PAYLOAD,2024-01-31 05:04:51,15.08841218,0.0001817,53.2189,4.2694,110.5699,249.5488,3.5202e-06,-2.32e-06,0.0,0 STARLINK-4084,1 52657U 22053B   24031.21171269 -.00000232  00000-0  35202-5 0  9991,2 52657  53.2189   4.2694 0001817 110.5699 249.5488 15.08841218 95392,6917.877,95.437,540.999,538.485,0.0
52657.0,STARLINK-4084,PAYLOAD,2024-01-31 22:34:06,15.08832371,0.0001751,53.2191,0.9969,107.0259,253.0925,4.4252e-05,4.16e-06,0.0,0 STARLINK-4084,1 52657U 22053B   24031.94035856  .00000416  00000-0  44252-4 0  9999,2 52657  53.2191   0.9969 0001751 107.0259 253.0925 15.08832371 95502,6917.904,95.438,540.98,538.557,0.0
52657.0,STARLINK-4084,PAYLOAD,2024-02-01 03:20:16,15.08833183,0.0001754,53.2193,0.1049,106.9317,253.1867,4.7666e-05,4.7e-06,0.0,0 STARLINK-4084,1 52657U 22053B   24032.13907887  .00000470  00000-0  47666-4 0  9995,2 52657  53.2193   0.1049 0001754 106.9317 253.1867 15.08833183 95532,6917.901,95.438,540.98,538.553,0.0
52657.0,STARLINK-4084,PAYLOAD,2024-02-01 20:49:29,15.0884797,0.0001419,53.2192,356.8347,119.5029,240.6105,0.00014097,1.957e-05,0.0,0 STARLINK-4084,1 52657U 22053B   24032.86770792  .00001957  00000-0  14097-3 0  9990,2 52657  53.2192 356.8347 0001419 119.5029 240.6105 15.08847970 95648,6917.856,95.437,540.703,538.739,0.0
52657.0,STARLINK-4084,PAYLOAD,2024-02-01 22:24:52,15.0885113,0.0001443,53.2191,356.5373,115.6879,244.4262,9.0773e-05,1.157e-05,0.0,0 STARLINK-4084,1 52657U 22053B   24032.93394391  .00001157  00000-0  90773-4 0  9993,2 52657  53.2191 356.5373 0001443 115.6879 244.4262 15.08851130 95650,6917.846,95.437,540.71,538.713,0.0
52657.0,STARLINK-4084,PAYLOAD,2024-02-02 03:11:01,15.08860452,0.0001647,53.2196,355.6469,103.7688,256.3487,0.00020607,2.995e-05,0.0,0 STARLINK-4084,1 52657U 22053B   24033.13265326  .00002995  00000-0  20607-3 0  9990,2 52657  53.2196 355.6469 0001647 103.7688 256.3487 15.08860452 95684,6917.818,95.436,540.822,538.544,0.0
52657.0,STARLINK-4084,PAYLOAD,2024-02-02 07:57:10,15.08864371,0.0001463,53.2183,354.7529,103.075,257.0405,0.00023035,3.382e-05,0.0,0 STARLINK-4084,1 52657U 22053B   24033.33136686  .00003382  00000-0  23035-3 0  9997,2 52657  53.2183 354.7529 0001463 103.0750 257.0405 15.08864371 95712,6917.806,95.436,540.683,538.659,0.0
52657.0,STARLINK-4084,PAYLOAD,2024-02-02 20:40:17,15.08833752,0.0001799,53.2191,352.3771,89.6592,270.4607,-2.0403e-05,-6.13e-06,0.0,0 STARLINK-4084,1 52657U 22053B   24033.86131551 -.00000613  00000-0 -20403-4 0  9994,2 52657  53.2191 352.3771 0001799  89.6592 270.4607 15.08833752 95799,6917.899,95.438,541.009,538.52,0.0
52657.0,STARLINK-4084,PAYLOAD,2024-02-03 03:01:50,15.08827254,0.0001399,53.2196,351.1842,96.8565,263.2587,-7.1475e-05,-1.425e-05,0.0,0 STARLINK-4084,1 52657U 22053B   24034.12628195 -.00001425  00000-0 -71475-4 0  9996,2 52657  53.2196 351.1842 0001399  96.8565 263.2587 15.08827254 95838,6917.919,95.438,540.752,538.817,0.0
52657.0,STARLINK-4084,PAYLOAD,2024-02-03 06:12:37,15.08826981,0.0001318,53.2192,350.5905,81.4472,278.6669,-7.4255e-05,-1.469e-05,0.0,0 STARLINK-4084,1 52657U 22053B   24034.25876409 -.00001469  00000-0 -74255-4 0  9990,2 52657  53.2192 350.5905 0001318  81.4472 278.6669 15.08826981 95854,6917.92,95.438,540.697,538.873,0.0
52657.0,STARLINK-4084,PAYLOAD,2024-02-03 20:31:04,15.08842099,0.0001226,53.2181,347.9148,70.8008,289.3117,-0.00012687,-2.307e-05,0.0,0 STARLINK-4084,1 52657U 22053B   24034.85491706 -.00002307  00000-0 -12687-3 0  9991,2 52657  53.2181 347.9148 0001226  70.8008 289.3117 15.08842099 95941,6917.874,95.437,540.587,538.891,0.0
52657.0,STARLINK-4084,PAYLOAD,2024-02-04 06:03:22,15.08848837,0.0001269,53.2177,346.1322,77.6497,282.4637,-1.4208e-05,-5.14e-06,0.0,0 STARLINK-4084,1 52657U 22053B   24035.25234803 -.00000514  00000-0 -14208-4 0  9999,2 52657  53.2177 346.1322 0001269  77.6497 282.4637 15.08848837 96000,6917.853,95.437,540.596,538.841,0.0
52657.0,STARLINK-4084,PAYLOAD,2024-02-04 20:21:51,15.08829214,0.0001208,53.2182,343.4542,86.9408,273.1722,0.0001434,1.994e-05,0.0,0 STARLINK-4084,1 52657U 22053B   24035.84851508  .00001994  00000-0  14340-3 0  9998,2 52657  53.2182 343.4542 0001208  86.9408 273.1722 15.08829214 96097,6917.913,95.438,540.614,538.943,0.0
52657.0,STARLINK-4084,PAYLOAD,2024-02-05 05:54:10,15.08838698,0.0001418,53.2178,341.6724,75.2181,284.8968,0.00016076,2.271e-05,0.0,0 STARLINK-4084,1 52657U 22053B   24036.24595199  .00002271  00000-0  16076-3 0  9991,2 52657  53.2178 341.6724 0001418  75.2181 284.8968 15.08838698 96150,6917.884,95.438,540.73,538.768,0.0
